KUIPER-00027            
1 63740U 25088S   26011.19249154  .00005959  00000+0  81032-3 0  9992
2 63740  51.9035 349.8318 0003929 347.8331  12.2536 14.79917535 39106
KUIPER-00028            
1 63741U 25088T   26011.61610502  .00002682  00000+0  38127-3 0  9996
2 63741  51.9016 345.9436 0004302 359.3631   0.7325 14.79879956 39608
KUIPER-00029            
1 63742U 25088U   26011.33125375 -.00005401  00000+0 -68056-3 0  9993
2 63742  51.9058 345.2574 0000303 212.3373 147.7570 14.79901323 39113
KUIPER-00030            
1 63743U 25088V   26011.24389783  .00002875  00000+0  40638-3 0  9995
2 63743  51.9036   4.5672 0013014 239.9966 119.9705 14.79874472 39126
KUIPER-00031            
1 63744U 25088W   26011.19037670  .00003187  00000+0  44576-3 0  9997
2 63744  51.9019 350.8676 0002652 305.1392  54.9322 14.80039804 39020
KUIPER-00032            
1 63745U 25088X   26011.21214496  .00019698  00000+0  58711-3 0  9994
2 63745  51.8717 301.5318 0002671 276.7899  83.2783 15.34664775 40712
KUIPER-00033            
1 63746U 25088Y   26011.29347999 -.00000320  00000+0 -12812-4 0  9995
2 63746  51.9027  20.4048 0003818   3.6394 356.4596 14.79945615 39107
KUIPER-00034            
1 63747U 25088Z   26011.60410318  .00001943  00000+0  28394-3 0  9998
2 63747  51.9046 341.5489 0001368  32.8206 327.2841 14.79913444 39350
